{"type": "FeatureCollection", "features": [{"type": "Feature", "properties": {"state": "Jharkhand"}, "geometry": {"type": "Polygon", "coordinates": [[[87.57973637622727, 25.34845611066597], [87.57883806094316, 25.343964534245373], [87.5716515386702, 25.341269588393015], [87.56715996224959, 25.33408306612006], [87.54739702599896, 25.3313881202677], [87.53841387315777, 25.298150454755277], [87.5393121884419, 25.281082464357006], [87.52673577446421, 25.280184149072888], [87.51326104520243, 25.291862247766442], [87.49798968537239, 25.29276056305056], [87.49080316309944, 25.304438661744115], [87.48631158667884, 25.29635382418704], [87.48182001025825, 25.29545550890292], [87.48720990196296, 25.27748920322053], [87.49439642423592, 25.27569257265229], [87.49170147838356, 25.27120099623169], [87.49529473952003, 25.26042121282226], [87.48720990196296, 25.2622178433905], [87.47283685741705, 25.242454907139866], [87.4710402268488, 25.193945881797415], [87.45397223645054, 25.19753914293389], [87.42073457093811, 25.213708818048044], [87.40905647224456, 25.21550544861628], [87.40815815696044, 25.21909870975276], [87.39378511241453, 25.227183547309835], [87.37671712201626, 25.222691970889237], [87.37042891502742, 25.205623980490966], [87.3551575551974, 25.213708818048044], [87.33180135781028, 25.216403763900402], [87.33000472724204, 25.222691970889237], [87.32281820496908, 25.222691970889237], [87.31563168269614, 25.19753914293389], [87.31652999798025, 25.18675935952446], [87.31024179099141, 25.170589684410306], [87.31383505212789, 25.168793053842066], [87.314733367412, 25.16340316213735], [87.31024179099141, 25.16070821628499], [87.30844516042318, 25.150826748159677], [87.30125863815022, 25.14453854117084], [87.30305526871845, 25.137352018897882], [87.29676706172962, 25.132860442477288], [87.29227548530902, 25.10501266866958], [87.29497043116137, 25.097826146396624], [87.2913771700249, 25.08974130883955], [87.26981760320604, 25.093334569976026], [87.2590378197966, 25.10501266866958], [87.25364792809188, 25.1059109839537], [87.24915635167129, 25.1059109839537], [87.2455630905348, 25.099622776964864], [87.23927488354597, 25.099622776964864], [87.23388499184125, 25.08614804770307], [87.21142710973827, 25.08974130883955], [87.21052879445415, 25.08524973241895], [87.19974901104472, 25.079859840714235], [87.19525743462411, 25.071775003157157], [87.1763928136576, 25.064588480884204], [87.15932482325934, 25.0322491306559], [87.14674840928166, 25.025062608382942], [87.1440534634293, 25.006197987416435], [87.1530366162705, 24.991824942870522], [87.14854503984989, 24.941519286959828], [87.15483324683873, 24.93253613411863], [87.15483324683873, 24.926247927129797], [87.14764672456577, 24.91906140485684], [87.14674840928166, 24.909179936731526], [87.15483324683873, 24.90019678389033], [87.15842650797521, 24.88672205462854], [87.15483324683873, 24.87684058650322], [87.14764672456577, 24.868755748946146], [87.14674840928166, 24.86246754195731], [87.15123998570226, 24.86336585724143], [87.15123998570226, 24.85887428082083], [87.13237536473575, 24.85977259610495], [87.12518884246279, 24.853484389116115], [87.11351074376924, 24.855281019684355], [87.10542590621216, 24.847196182127277], [87.09464612280273, 24.825636615308408], [87.08835791581389, 24.82294166945605], [87.08027307825681, 24.82473830002429], [87.07757813240445, 24.821145038887813], [87.07667981712034, 24.808568624910137], [87.08117139354094, 24.80946694019426], [87.089256231098, 24.80317873320542], [87.09644275337097, 24.804077048489543], [87.09644275337097, 24.799585472068944], [87.09105286166626, 24.78790737337539], [87.08296802410918, 24.780720851102433], [87.08206970882506, 24.76724612184064], [87.08566296996153, 24.756466338431206], [87.08117139354094, 24.75287307729473], [87.08117139354094, 24.74748318559001], [87.07308655598386, 24.743889924453534], [87.07578150183622, 24.73580508689646], [87.08117139354094, 24.736703402180577], [87.08206970882506, 24.725025303487023], [87.07667981712034, 24.71424552007759], [87.07218824069975, 24.71155057422523], [87.06949329484738, 24.69088932269048], [87.0614084572903, 24.682804485133406], [87.05871351143794, 24.67202470172397], [87.05422193501735, 24.671126386439852], [87.05512025030147, 24.661244918314537], [87.04434046689204, 24.627108937517995], [87.04973035859675, 24.606447685983248], [87.04434046689204, 24.605549370699126], [87.03715394461908, 24.6136342082562], [87.03535731405084, 24.610040947119725], [87.02727247649376, 24.609142631835606], [87.02637416120965, 24.620820730529157], [87.01649269308433, 24.6181257846768], [87.01559437780021, 24.612735892972083], [87.00930617081137, 24.606447685983248], [86.9922381804131, 24.61992241524504], [86.98594997342427, 24.620820730529157], [86.968881983026, 24.631600513938594], [86.94552578563889, 24.627108937517995], [86.94822073149125, 24.643278612632148], [86.93025442580885, 24.643278612632148], [86.93564431751358, 24.631600513938594], [86.93474600222945, 24.627108937517995], [86.92666116467238, 24.626210622233877], [86.9185763271153, 24.61992241524504], [86.91767801183119, 24.610040947119725], [86.90959317427411, 24.60195610956265], [86.90869485898999, 24.59656621785793], [86.90420328256938, 24.595667902573812], [86.89791507558056, 24.587583065016737], [86.89791507558056, 24.57949822745966], [86.90330496728527, 24.572311705186706], [86.90150833671703, 24.56602349819787], [86.90599991313763, 24.56422686762963], [86.90599991313763, 24.547158877231357], [86.90959317427411, 24.540870670242523], [86.90779654370587, 24.5399723549584], [86.90061002143291, 24.544463931379], [86.89342349915995, 24.555243714788432], [86.88444034631875, 24.554345399504314], [86.88354203103464, 24.560633606493152], [86.87725382404581, 24.566921813481986], [86.87006730177285, 24.56153192177727], [86.86108414893165, 24.560633606493152], [86.85479594194281, 24.550752138367837], [86.83862626682867, 24.554345399504314], [86.83682963626042, 24.568718444050226], [86.82515153756687, 24.56602349819787], [86.81706670000979, 24.569616759334345], [86.80898186245273, 24.56422686762963], [86.80089702489565, 24.56422686762963], [86.80089702489565, 24.572311705186706], [86.80718523188447, 24.5768032816073], [86.80538860131624, 24.595667902573812], [86.79910039432741, 24.599261163710292], [86.7946088179068, 24.612735892972083], [86.78742229563385, 24.61722746939268], [86.78562566506561, 24.612735892972083], [86.79281218733857, 24.605549370699126], [86.7946088179068, 24.597464533142052], [86.78652398034973, 24.599261163710292], [86.78472734978149, 24.610040947119725], [86.77754082750853, 24.61992241524504], [86.77484588165618, 24.61992241524504], [86.77484588165618, 24.616329154108563], [86.76226946767851, 24.61543083882444], [86.75328631483731, 24.61543083882444], [86.75059136898496, 24.6181257846768], [86.74430316199611, 24.603752740130886], [86.74520147728023, 24.589379695584974], [86.73801495500727, 24.585786434448497], [86.73172674801845, 24.575904966323183], [86.71825201875664, 24.57859991217554], [86.69579413665366, 24.568718444050226], [86.68591266852835, 24.570515074618466], [86.68142109210774, 24.56512518291375], [86.67603120040303, 24.56602349819787], [86.66884467813007, 24.560633606493152], [86.64548848074297, 24.566921813481986], [86.64189521960648, 24.575904966323183], [86.6329120667653, 24.5768032816073], [86.61853902221938, 24.583989803880257], [86.61853902221938, 24.594769587289694], [86.60686092352583, 24.594769587289694], [86.60955586937818, 24.60195610956265], [86.60955586937818, 24.607346001267366], [86.60686092352583, 24.607346001267366], [86.58530135670696, 24.588481380300856], [86.58350472613871, 24.574108335754943], [86.578114834434, 24.567820128766108], [86.55475863704689, 24.55973529120903], [86.55745358289926, 24.54805719251548], [86.54667379948982, 24.535480778537803], [86.53499570079626, 24.536379093821925], [86.53050412437567, 24.532785832685445], [86.52241928681859, 24.535480778537803], [86.50535129642032, 24.518412788139532], [86.49726645886325, 24.498649851888903], [86.49816477414737, 24.48697175319535], [86.49007993659029, 24.48427680734299], [86.48918162130617, 24.4663105016606], [86.48469004488557, 24.460022294671763], [86.49097825187441, 24.454632402967047], [86.49187656715853, 24.439361043137016], [86.48828330602205, 24.434869466716417], [86.48828330602205, 24.424987998591103], [86.46402879335082, 24.420496422170505], [86.46582542391906, 24.384563810805723], [86.46223216278258, 24.37737728853277], [86.45504564050962, 24.37468234268041], [86.45055406408903, 24.368394135691574], [86.44606248766843, 24.368394135691574], [86.43438438897488, 24.37737728853277], [86.41551976800837, 24.379173919101007], [86.39665514704186, 24.402530116488116], [86.37419726493887, 24.41510653046579], [86.36790905795003, 24.424987998591103], [86.3616208509612, 24.42768294444346], [86.35173938283589, 24.443852619557614], [86.34724780641528, 24.440259358421134], [86.31940003260758, 24.440259358421134], [86.31311182561875, 24.444750934841732], [86.30323035749343, 24.444750934841732], [86.29873878107283, 24.45103914183057], [86.30053541164106, 24.457327348819405], [86.2789758448222, 24.461818925240003], [86.28526405181104, 24.477090285070034], [86.29424720465224, 24.476191969785916], [86.29784046578871, 24.48966669904771], [86.31221351033463, 24.508531320014217], [86.30772193391402, 24.52649762569661], [86.3014337269252, 24.53098920211721], [86.30951856448226, 24.544463931379], [86.30412867277755, 24.558836975924912], [86.30951856448226, 24.56243023706139], [86.30951856448226, 24.567820128766108], [86.31940003260758, 24.574108335754943], [86.31850171732346, 24.57949822745966], [86.32299329374406, 24.58039654274378], [86.32209497845994, 24.58488811916438], [86.31131519505051, 24.585786434448497], [86.31041687976638, 24.58219317331202], [86.29514551993636, 24.585786434448497], [86.27628089896984, 24.583989803880257], [86.27358595311749, 24.58309148859614], [86.27628089896984, 24.575006651039065], [86.26909437669688, 24.577701596891423], [86.26639943084453, 24.58219317331202], [86.26280616970806, 24.575904966323183], [86.25651796271922, 24.583989803880257], [86.24843312516214, 24.58488811916438], [86.23855165703682, 24.597464533142052], [86.21789040550208, 24.611837577687965], [86.21519545964972, 24.591176326153214], [86.19453420811497, 24.58488811916438], [86.16488980373902, 24.583989803880257], [86.15590665089783, 24.590278010869095], [86.15231338976135, 24.60015947899441], [86.13255045351072, 24.603752740130886], [86.1316521382266, 24.608244316551485], [86.12446561595364, 24.6136342082562], [86.11817740896481, 24.64058366677979], [86.12626224652189, 24.653160080757463], [86.12626224652189, 24.671126386439852], [86.13344876879484, 24.67471964757633], [86.12536393123776, 24.703465736668154], [86.11099088669185, 24.723228672918783], [86.10919425612362, 24.733110141044097], [86.08673637402063, 24.74658487030589], [86.0624818613494, 24.751974762010608], [86.06068523078116, 24.74748318559001], [86.04002397924641, 24.742093293885294], [86.03643071810993, 24.743889924453534], [86.03643071810993, 24.74748318559001], [86.04092229453053, 24.74748318559001], [86.05260039322408, 24.760059599567686], [86.05080376265585, 24.779822535818315], [86.03373577225757, 24.776229274681835], [86.02924419583698, 24.77083938297712], [86.0211593582799, 24.76814443712476], [86.00858294430222, 24.76814443712476], [85.99959979146104, 24.75107644672649], [85.97624359407392, 24.74748318559001], [85.97265033293745, 24.73580508689646], [85.96905707180096, 24.733110141044097], [85.94929413555033, 24.73221182575998], [85.924141307595, 24.742093293885294], [85.91066657833319, 24.75287307729473], [85.90437837134436, 24.760957914851804], [85.901683425492, 24.77083938297712], [85.88731038094609, 24.78521242752303], [85.88910701151433, 24.792398949795988], [85.87653059753666, 24.801382102637184], [85.85676766128603, 24.80767030962602], [85.82173336520536, 24.80946694019426], [85.81364852764828, 24.802280417921303], [85.81095358179593, 24.795093895648346], [85.77502097043114, 24.799585472068944], [85.76873276344232, 24.80317873320542], [85.76873276344232, 24.80946694019426], [85.76424118702171, 24.813958516614857], [85.73819004378225, 24.82294166945605], [85.73190183679341, 24.816653462467215], [85.72830857565694, 24.800483787353063], [85.72291868395222, 24.799585472068944], [85.72112205338398, 24.78700905809127], [85.70944395469043, 24.78161916638655], [85.70944395469043, 24.775330959397717], [85.7040540629857, 24.76904275240888], [85.70315574770159, 24.756466338431206], [85.70764732412219, 24.745686555021774], [85.70495237826982, 24.728618564623503], [85.69686754071276, 24.719635411782306], [85.69686754071276, 24.713347204793468], [85.67979955031448, 24.69358426854284], [85.65195177650678, 24.688194376838123], [85.6483585153703, 24.684601115701646], [85.65105346122266, 24.678312908712808], [85.66003661406386, 24.67471964757633], [85.66003661406386, 24.668431440587494], [85.66362987520033, 24.664838179451014], [85.66093492934797, 24.645973558484506], [85.66362987520033, 24.645075243200385], [85.6717147127574, 24.62171904581328], [85.67081639747329, 24.599261163710292], [85.67351134332564, 24.592972956721454], [85.66542650576856, 24.58219317331202], [85.64117199309734, 24.57859991217554], [85.62320568741495, 24.583989803880257], [85.61422253457376, 24.58309148859614], [85.60883264286903, 24.58488811916438], [85.60793432758491, 24.591176326153214], [85.60074780531197, 24.59656621785793], [85.5746966620725, 24.602854424846768], [85.56481519394718, 24.59656621785793], [85.56122193281071, 24.585786434448497], [85.56212024809483, 24.58039654274378], [85.56661182451542, 24.57859991217554], [85.56840845508366, 24.56512518291375], [85.5567303563901, 24.560633606493152], [85.55403541053775, 24.556142030072554], [85.54415394241244, 24.56512518291375], [85.53696742013948, 24.56602349819787], [85.54056068127595, 24.552548768936074], [85.53696742013948, 24.536379093821925], [85.53427247428712, 24.531887517401326], [85.51900111445708, 24.52470099512837], [85.51540785332061, 24.528294256264846], [85.50283143934294, 24.53098920211721], [85.50283143934294, 24.54356561609488], [85.49474660178586, 24.550752138367837], [85.47139040439875, 24.54805719251548], [85.45701735985284, 24.539074039674283], [85.4417460000228, 24.5399723549584], [85.43455947774986, 24.536379093821925], [85.42467800962454, 24.53817572439016], [85.41210159564686, 24.545362246663117], [85.40222012752155, 24.545362246663117], [85.38335550655503, 24.535480778537803], [85.3815588759868, 24.531887517401326], [85.37347403842972, 24.530090886833086], [85.31957512138256, 24.52470099512837], [85.29801555456369, 24.52919257154897], [85.28274419473365, 24.52739594098073], [85.27915093359718, 24.520209418707772], [85.28184587944953, 24.497751536604785], [85.2575913667783, 24.498649851888903], [85.24681158336887, 24.495954906036545], [85.23872674581179, 24.48876838376359], [85.23513348467532, 24.479785230922396], [85.22794696240236, 24.479785230922396], [85.22435370126588, 24.471700393365317], [85.20279413444702, 24.473497023933557], [85.19920087331053, 24.46720881694472], [85.18033625234403, 24.46900544751296], [85.15069184796808, 24.463615555808243], [85.14979353268396, 24.45553071825117], [85.15877668552515, 24.45103914183057], [85.16955646893459, 24.4294795750117], [85.15787837024104, 24.424987998591103], [85.15518342438868, 24.417801476318147], [85.1470985868316, 24.418699791602265], [85.12194575887627, 24.40881832347695], [85.1147592366033, 24.40881832347695], [85.10847102961446, 24.398038540067517], [85.0958946156368, 24.39175033307868], [85.08960640864795, 24.379173919101007], [85.06535189597673, 24.386360441373963], [85.07074178768144, 24.398038540067517], [85.06984347239732, 24.405225062340474], [85.07433504881793, 24.407920008192832], [85.07613167938617, 24.422293052738745], [85.07523336410205, 24.440259358421134], [85.0635552654085, 24.43037789029582], [85.05816537370377, 24.417801476318147], [85.05367379728318, 24.41510653046579], [85.04289401387373, 24.417801476318147], [85.04019906802138, 24.424089683306985], [85.02852096932783, 24.424987998591103], [85.01055466364544, 24.416004845749907], [84.98989341211069, 24.41241158461343], [84.9674355300077, 24.37558065796453], [84.94677427847296, 24.37198739682805], [84.92251976580172, 24.37827560381689], [84.89646862256225, 24.372885712112172], [84.89467199199402, 24.37647897324865], [84.90006188369874, 24.380970549669247], [84.8982652531305, 24.394445278931038], [84.89197704614166, 24.398038540067517], [84.87760400159574, 24.422293052738745], [84.88029894744811, 24.43127620557994], [84.88029894744811, 24.46271724052412], [84.86682421818631, 24.46720881694472], [84.86233264176572, 24.457327348819405], [84.856942750061, 24.457327348819405], [84.856942750061, 24.461818925240003], [84.84706128193568, 24.4663105016606], [84.84256970551509, 24.456429033535287], [84.83448486795801, 24.452835772398807], [84.83089160682154, 24.458225664103526], [84.83358655267389, 24.469903762797077], [84.82729834568505, 24.469903762797077], [84.83268823738977, 24.512124581150697], [84.8201118234121, 24.52470099512837], [84.8012472024456, 24.52110773399189], [84.79495899545675, 24.52919257154897], [84.78956910375203, 24.52110773399189], [84.7832808967632, 24.518412788139532], [84.77968763562671, 24.50493805887774], [84.74195839369371, 24.496853221320666], [84.74016176312546, 24.48787006847947], [84.72489040329543, 24.47259870864944], [84.71860219630659, 24.46900544751296], [84.70602578232892, 24.47259870864944], [84.69434768363537, 24.461818925240003], [84.67907632380533, 24.457327348819405], [84.67368643210062, 24.440259358421134], [84.66560159454355, 24.43037789029582], [84.6682965403959, 24.416004845749907], [84.66200833340706, 24.40881832347695], [84.6593133875547, 24.394445278931038], [84.62966898317876, 24.399835170635757], [84.62338077618992, 24.404326747056356], [84.60182120937105, 24.400733485919876], [84.58834648010927, 24.404326747056356], [84.58205827312042, 24.401631801203994], [84.58026164255219, 24.41061495404519], [84.57127848971099, 24.41241158461343], [84.55960039101744, 24.399835170635757], [84.56588859800627, 24.383665495521605], [84.54612566175564, 24.37378402739629], [84.54163408533505, 24.37737728853277], [84.52187114908442, 24.37647897324865], [84.52726104078914, 24.362105928702736], [84.51917620323206, 24.35402109114566], [84.51917620323206, 24.345936253588587], [84.52456609493677, 24.33874973131563], [84.51737957266381, 24.334258154895032], [84.51109136567499, 24.31719016449676], [84.50300652811791, 24.31539353392852], [84.50480315868614, 24.305512065803207], [84.50120989754967, 24.30012217409849], [84.50210821283379, 24.294732282393774], [84.49761663641318, 24.293833967109652], [84.49402337527671, 24.287545760120818], [84.4841419071514, 24.29652891296201], [84.488633483572, 24.30102048938261], [84.48773516828787, 24.30461375051909], [84.47426043902608, 24.30281711995085], [84.46437897090077, 24.309105326939687], [84.45449750277545, 24.33874973131563], [84.44641266521838, 24.33964804659975], [84.44461603465014, 24.334258154895032], [84.41766657612655, 24.331563209042674], [84.42215815254715, 24.359410982850378], [84.39520869402357, 24.367495820407452], [84.39970027044416, 24.37558065796453], [84.38532722589825, 24.379173919101007], [84.3826322800459, 24.389953702510443], [84.37275081192058, 24.39085201779456], [84.36825923549998, 24.387258756658085], [84.3601743979429, 24.387258756658085], [84.35658113680643, 24.39085201779456], [84.3368182005558, 24.39534359421516], [84.33771651583992, 24.401631801203994], [84.32603841714636, 24.41061495404519], [84.3278350477146, 24.422293052738745], [84.32424178657813, 24.424089683306985], [84.31795357958929, 24.420496422170505], [84.31525863373693, 24.423191368022863], [84.3188518948734, 24.4294795750117], [84.33052999356696, 24.42858125972758], [84.32963167828284, 24.433072836148177], [84.3134620031687, 24.448344195978212], [84.29280075163393, 24.45103914183057], [84.28561422936099, 24.46720881694472], [84.29369906691807, 24.480683546206514], [84.32154684072576, 24.48966669904771], [84.32603841714636, 24.496853221320666], [84.31975021015752, 24.522006049276012], [84.31256368788456, 24.52649762569661], [84.30986874203221, 24.5399723549584], [84.30178390447513, 24.547158877231357], [84.2954956974863, 24.56512518291375], [84.26944455424683, 24.56422686762963], [84.27124118481507, 24.554345399504314], [84.27932602237215, 24.552548768936074], [84.27932602237215, 24.548955507799597], [84.26854623896271, 24.547158877231357], [84.26944455424683, 24.54176898552664], [84.26405466254211, 24.540870670242523], [84.26315634725799, 24.537277409106043], [84.2586647708374, 24.53817572439016], [84.25686814026916, 24.53098920211721], [84.24878330271208, 24.531887517401326], [84.24878330271208, 24.539074039674283], [84.24339341100736, 24.54266730081076], [84.23441025816616, 24.54356561609488], [84.2353085734503, 24.553447084220196], [84.22093552890438, 24.550752138367837], [84.21824058305202, 24.537277409106043], [84.21464732191554, 24.535480778537803], [84.20835911492671, 24.537277409106043], [84.20656248435847, 24.545362246663117], [84.20027427736963, 24.549853823083716], [84.20027427736963, 24.557040345356672], [84.1894944939602, 24.556142030072554], [84.18679954810784, 24.548955507799597], [84.17242650356192, 24.547158877231357], [84.17242650356192, 24.54176898552664], [84.18140965640312, 24.52470099512837], [84.18590123282371, 24.52290436456013], [84.17961302583488, 24.510327950582457], [84.16523998128896, 24.511226265866576], [84.15446019787953, 24.516616157571296], [84.15535851316365, 24.52470099512837], [84.16434166600484, 24.534582463253685], [84.15985008958425, 24.539074039674283], [84.14547704503833, 24.540870670242523], [84.13649389219714, 24.530090886833086], [84.14008715333362, 24.50493805887774], [84.1257141087877, 24.499548167173025], [84.12301916293535, 24.48697175319535], [84.10954443367356, 24.481581861490632], [84.10056128083237, 24.48787006847947], [84.09606970441176, 24.497751536604785], [84.08888318213882, 24.50403974359362], [84.08708655157056, 24.520209418707772], [84.08978149742293, 24.534582463253685], [84.07810339872937, 24.545362246663117], [84.07271350702466, 24.569616759334345], [84.06013709304699, 24.5768032816073], [84.06193372361523, 24.589379695584974], [84.05205225548991, 24.589379695584974], [84.05295057077403, 24.59656621785793], [84.04845899435342, 24.606447685983248], [84.04486573321695, 24.607346001267366], [84.04666236378519, 24.612735892972083], [84.03857752622811, 24.61992241524504], [84.0331876345234, 24.61902409996092], [84.02600111225044, 24.628905568086235], [84.01701795940924, 24.627108937517995], [84.01342469827277, 24.632498829222712], [83.99545839259038, 24.637888720927428], [83.99096681616977, 24.63699040564331], [83.98108534804446, 24.61992241524504], [83.97210219520328, 24.595667902573812], [83.95772915065736, 24.575904966323183], [83.93347463798614, 24.551650453651956], [83.92449148514494, 24.54626056194724], [83.90472854889431, 24.54356561609488], [83.86879593752953, 24.532785832685445], [83.85711783883598, 24.53817572439016], [83.81040544406176, 24.52919257154897], [83.7942357689476, 24.530090886833086], [83.74842168945752, 24.510327950582457], [83.73045538377512, 24.50942963529834], [83.71787896979744, 24.50493805887774], [83.70081097939918, 24.5076330047301], [83.6837429890009, 24.515717842287174], [83.64152217064729, 24.516616157571296], [83.60019966757778, 24.513022896434816], [83.57235189377009, 24.516616157571296], [83.54270748939413, 24.52649762569661], [83.51665634615468, 24.52739594098073], [83.49689340990405, 24.52739594098073], [83.39628209808265, 24.50493805887774], [83.39179052166206, 24.498649851888903], [83.39268883694618, 24.479785230922396], [83.38101073825263, 24.45553071825117], [83.39089220637794, 24.436666097284657], [83.40077367450326, 24.437564412568776], [83.39987535921914, 24.40881832347695], [83.41335008848093, 24.41061495404519], [83.42862144831096, 24.405225062340474], [83.4304180788792, 24.39534359421516], [83.4394012317204, 24.38905538722632], [83.4394012317204, 24.38007223438513], [83.45107933041395, 24.364800874555094], [83.44119786228863, 24.361207613418618], [83.43490965529979, 24.348631199440945], [83.42592650245861, 24.33964804659975], [83.40436693563973, 24.33874973131563], [83.3756208465479, 24.314495218644403], [83.38011242296851, 24.30102048938261], [83.3935871522303, 24.295630597677892], [83.39897704393502, 24.289342390689054], [83.40257030507149, 24.27856260727962], [83.40167198978737, 24.265087878017827], [83.3935871522303, 24.254308094608394], [83.3935871522303, 24.247121572335438], [83.37741747711615, 24.236341788926005], [83.37921410768439, 24.218375483243612], [83.3756208465479, 24.211188960970656], [83.37831579240027, 24.200409177561223], [83.35765454086552, 24.159086674491725], [83.35585791029727, 24.146510260514052], [83.34956970330845, 24.137527107672856], [83.34867138802433, 24.1258490089793], [83.34148486575137, 24.11237427971751], [83.3244168753531, 24.100696181023956], [83.3432814963196, 24.097102919887476], [83.36034948671788, 24.102492811592196], [83.38101073825263, 24.100696181023956], [83.39268883694618, 24.09530628931924], [83.40167198978737, 24.080933244773327], [83.42592650245861, 24.083628190625685], [83.4304180788792, 24.07464503778449], [83.4304180788792, 24.05847536267034], [83.44748606927747, 24.042305687556187], [83.47713047365342, 24.03961074170383], [83.50677487802936, 24.028830958294392], [83.51665634615468, 24.01176296789612], [83.50767319331348, 24.00277981505493], [83.50767319331348, 23.9785253023837], [83.52114792257527, 23.953372474428356], [83.53372433655295, 23.94259269101892], [83.53911422825766, 23.933609538177723], [83.53731759768942, 23.912948286642976], [83.54180917411001, 23.89947355738118], [83.54899569638297, 23.893185350392347], [83.5687586326336, 23.891388719824107], [83.57594515490656, 23.88510051283527], [83.57325020905421, 23.877015675278194], [83.55797884922417, 23.87072746828936], [83.5597754797924, 23.86443926130052], [83.58133504661127, 23.86264263073228], [83.59301314530484, 23.855456108459325], [83.61277608155547, 23.85365947789109], [83.62894575666961, 23.84737127090225], [83.65050532348849, 23.84826958618637], [83.65679353047732, 23.842879694481653], [83.65499689990908, 23.83209991107222], [83.65859016104555, 23.82760833465162], [83.66757331388675, 23.82581170408338], [83.67116657502324, 23.820421812378665], [83.68104804314855, 23.82581170408338], [83.69631940297857, 23.820421812378665], [83.69811603354681, 23.814133605389827], [83.69542108769446, 23.80694708311687], [83.7106924475245, 23.79077740800272], [83.71248907809273, 23.77191278703621], [83.729557068491, 23.755743111922058], [83.729557068491, 23.730590283966713], [83.73494696019571, 23.71352229356844], [83.73225201434336, 23.704539140727245], [83.72237054621804, 23.693759357317813], [83.71518402394508, 23.691064411465454], [83.71428570866097, 23.682979573908376], [83.72686212263864, 23.668606529362467], [83.75111663530987, 23.653335169532433], [83.75201495059399, 23.648843593111835], [83.74572674360515, 23.647046962543598], [83.74303179775279, 23.642555386123], [83.74662505888926, 23.629080656861206], [83.76548967985578, 23.62099581930413], [83.76728631042403, 23.609317720610576], [83.77447283269697, 23.599436252485262], [83.78794756195877, 23.597639621917025], [83.79782903008409, 23.59045309964407], [83.80052397593644, 23.583266577371113], [83.80681218292528, 23.58236826208699], [83.81310038991411, 23.58865646907583], [83.82747343446003, 23.583266577371113], [83.87957572093896, 23.573385109245798], [83.89125381963251, 23.576080055098156], [83.89933865718959, 23.570690163393436], [83.93527126855437, 23.563503641120484], [83.92988137684965, 23.600334567769384], [83.93167800741789, 23.612910981747056], [83.93796621440673, 23.62279244987237], [83.9640173576462, 23.626385711008847], [83.97749208690799, 23.631775602713567], [84.00713649128393, 23.632673917997685], [84.00174659957922, 23.620097504020013], [84.00983143713628, 23.608419405326458], [84.02150953582985, 23.599436252485262], [84.0242044816822, 23.58865646907583], [84.02240785111397, 23.542842389585733], [84.01252638298865, 23.522181138050982], [84.01252638298865, 23.507808093505073], [84.00893312185217, 23.499723255947995], [83.99545839259038, 23.49163841839092], [83.98378029389683, 23.475468743276767], [83.97928871747622, 23.461095698730855], [83.96940724935091, 23.45570580702614], [83.96940724935091, 23.447620969469064], [83.97928871747622, 23.425163087366077], [83.97659377162387, 23.408095096967806], [83.96761061878267, 23.393722052421893], [83.96581398821444, 23.378450692591862], [83.96850893406679, 23.371264170318906], [83.98108534804446, 23.36048438690947], [84.00354323014746, 23.353297864636513], [84.00713649128393, 23.353297864636513], [84.01162806770454, 23.364975963330068], [84.02061122054573, 23.3757557467395], [84.04127247208048, 23.3757557467395], [84.04666236378519, 23.372162485603024], [84.04306910264872, 23.369467539750666], [84.0475606790693, 23.36407764804595], [84.04935730963754, 23.352399549352395], [84.0700185611723, 23.331738297817644], [84.05923877776286, 23.307483785146417], [84.06373035418346, 23.291314110032268], [84.05923877776286, 23.28592421832755], [84.05923877776286, 23.274246119633997], [84.05025562492168, 23.24370339997393], [84.05384888605815, 23.235618562416857], [84.05205225548991, 23.215855626166228], [84.05834046247874, 23.20866910389327], [84.05834046247874, 23.203279212188555], [84.05205225548991, 23.19070279821088], [84.04127247208048, 23.182617960653804], [84.03139100395516, 23.163753339687297], [84.0286960581028, 23.15387187156198], [84.0331876345234, 23.138600511731948], [84.05384888605815, 23.124227467186035], [84.06103540833111, 23.109854422640122], [84.06642530003582, 23.107159476787764], [84.08888318213882, 23.109854422640122], [84.10415454196884, 23.10087126979893], [84.11223937952592, 23.087396540537135], [84.12661242407182, 23.085599909968895], [84.13020568520831, 23.0811083335483], [84.13200231577655, 23.067633604286506], [84.12481579350359, 23.05595550559295], [84.12391747821947, 23.031700992921724], [84.14457872975422, 22.98858185928399], [84.1436804144701, 22.974208814738077], [84.14727367560658, 22.964327346612762], [84.15446019787953, 22.964327346612762], [84.16883324242545, 22.972412184169837], [84.1715281882778, 22.976903760590435], [84.16883324242545, 22.995768381556942], [84.17422313413016, 23.00025995797754], [84.17242650356192, 23.00834479553462], [84.17691807998253, 23.02181952479641], [84.19129112452843, 23.02361615536465], [84.19937596208551, 23.01732794837581], [84.19668101623316, 23.00385321911402], [84.21195237606318, 22.987683543999868], [84.21554563719967, 22.976903760590435], [84.23800351930265, 22.98049702172691], [84.240698465155, 22.973310499453955], [84.25147824856444, 22.971513868885715], [84.27124118481507, 22.989480174568108], [84.26854623896271, 22.978700391158675], [84.27842770708803, 22.9616324007604], [84.28920749049746, 22.9616324007604], [84.30537716561162, 22.96702229246512], [84.32334347129401, 22.979598706442793], [84.33232662413519, 22.979598706442793], [84.34220809226052, 22.974208814738077], [84.37095418135233, 22.975107130022195], [84.37724238834117, 22.96522566189688], [84.37903901890941, 22.949055986782728], [84.38892048703472, 22.940072833941535], [84.38981880231884, 22.923903158827382], [84.38622554118237, 22.916716636554426], [84.37095418135233, 22.90324190729263], [84.37275081192058, 22.898750330872037], [84.37724238834117, 22.897852015587915], [84.37814070362529, 22.887072232178483], [84.37544575777294, 22.882580655757884], [84.37634407305706, 22.87449581820081], [84.37095418135233, 22.87269918763257], [84.37005586606821, 22.864614350075495], [84.35927608265878, 22.861021088939015], [84.34759798396523, 22.863716034791373], [84.34130977697639, 22.859224458370775], [84.32873336299872, 22.860122773654897], [84.31795357958929, 22.844851413824866], [84.3188518948734, 22.823291847005997], [84.31256368788456, 22.811613748312443], [84.31166537260044, 22.802630595471246], [84.29010580578158, 22.788257550925334], [84.28561422936099, 22.764003038254106], [84.2820209682245, 22.76040977711763], [84.27483444595156, 22.765799668822346], [84.2541731944168, 22.764003038254106], [84.25147824856444, 22.75771483126527], [84.22542710532498, 22.736155264446403], [84.22452879004085, 22.727172111605206], [84.22902036646146, 22.713697382343415], [84.22812205117734, 22.696629391945145], [84.23171531231381, 22.691239500240428], [84.2263254206091, 22.675069825126275], [84.21374900663142, 22.66429004171684], [84.19578270094902, 22.66429004171684], [84.180511341119, 22.64991699717093], [84.16344335072073, 22.645425420750332], [84.14996862145894, 22.634645637340896], [84.10595117253708, 22.637340583193254], [84.0933747585594, 22.63284900677266], [84.07990002929762, 22.637340583193254], [84.06103540833111, 22.60949280938555], [84.0511539402058, 22.601407971828475], [84.04845899435342, 22.59422144955552], [84.02150953582985, 22.58793324256668], [84.01791627469336, 22.57895008972549], [84.00444154543158, 22.569966936884292], [84.00444154543158, 22.55469557705426], [83.99905165372685, 22.54032253250835], [84.0053398607157, 22.528644433814794], [84.00264491486334, 22.521457911541837], [84.01701795940924, 22.522356226825956], [84.03228931923928, 22.51247475870064], [84.05564551662638, 22.511576443416523], [84.07720508344525, 22.490016876597654], [84.09786633498, 22.481033723756457], [84.10325622668472, 22.48193203904058], [84.1023579114006, 22.47744046261998], [84.10595117253708, 22.4738472014835], [84.12930736992419, 22.4738472014835], [84.13020568520831, 22.470253940347025], [84.13559557691302, 22.471152255631143], [84.13739220748127, 22.455880895801112], [84.13290063106066, 22.446897742959916], [84.13559557691302, 22.42084659972045], [84.14457872975422, 22.413660077447496], [84.15356188259541, 22.4001853481857], [84.18320628697136, 22.38491398835567], [84.19398607038079, 22.372337574377998], [84.24698667214385, 22.374134204946234], [84.25147824856444, 22.371439259093876], [84.26585129311036, 22.34808306170677], [84.28561422936099, 22.34269317000205], [84.28830917521334, 22.338201593581456], [84.32424178657813, 22.339099908865574], [84.33322493941932, 22.343591485286172], [84.35927608265878, 22.345388115854412], [84.36376765907939, 22.34987969227501], [84.39341206345533, 22.34448980057029], [84.41856489141067, 22.351676322843247], [84.42575141368363, 22.34987969227501], [84.43114130538835, 22.359761160400325], [84.42664972896775, 22.36515105210504], [84.44102277351367, 22.372337574377998], [84.4473109805025, 22.379524096650954], [84.45719244862781, 22.375930835514474], [84.47875201544669, 22.38491398835567], [84.47426043902608, 22.40108366346982], [84.47605706959432, 22.40647355517454], [84.48504022243552, 22.407371870458658], [84.50210821283379, 22.416355023299854], [84.52187114908442, 22.415456708015732], [84.52636272550501, 22.42084659972045], [84.54792229232389, 22.418151653868094], [84.58834648010927, 22.425338176141047], [84.59283805652986, 22.428931437277527], [84.59553300238221, 22.425338176141047], [84.63326224431523, 22.428931437277527], [84.66021170283882, 22.414558392731614], [84.67188980153237, 22.416355023299854], [84.69344936835125, 22.412761762163374], [84.72399208801131, 22.417253338583972], [84.74375502426194, 22.415456708015732], [84.75273817710314, 22.442406166539318], [84.79585731074087, 22.44330448182344], [84.80843372471854, 22.446897742959916], [84.81292530113915, 22.431626383129885], [84.83178992210566, 22.430728067845767], [84.83268823738977, 22.427134806709287], [84.83628149852625, 22.42803312199341], [84.83987475966273, 22.43521964426636], [84.856942750061, 22.432524698414003], [84.87760400159574, 22.44330448182344], [84.88209557801635, 22.42803312199341], [84.88029894744811, 22.418151653868094], [84.8937736767099, 22.418151653868094], [84.91802818938113, 22.42443986085693], [84.91982481994937, 22.427134806709287], [84.91712987409701, 22.43521964426636], [84.93150291864292, 22.43971122068696], [84.94587596318883, 22.451389319380514], [84.95216417017767, 22.453185949948754], [84.95216417017767, 22.43971122068696], [84.95485911603002, 22.43971122068696], [84.9629439535871, 22.445999427675797], [84.99258835796304, 22.45857584165347], [85.00067319552012, 22.45857584165347], [85.02852096932783, 22.468457309778785], [85.0321142304643, 22.470253940347025], [85.03301254574842, 22.47744046261998], [85.03840243745314, 22.47564383205174], [85.05097885143081, 22.48013540847234], [85.06265695012436, 22.479237093188218], [85.07343673353381, 22.472948886199383], [85.07343673353381, 22.465762363926427], [85.07074178768144, 22.455880895801112], [85.05996200427201, 22.450491004096396], [85.05726705841965, 22.4415078512552], [85.06265695012436, 22.4370162748346], [85.0635552654085, 22.42354154557281], [85.07702999467028, 22.410066816311016], [85.08331820165913, 22.379524096650954], [85.07523336410205, 22.3633544215368], [85.07433504881793, 22.34898137699089], [85.08152157109087, 22.341794854717932], [85.09319966978444, 22.341794854717932], [85.09050472393207, 22.32472686431966], [85.08601314751148, 22.318438657330823], [85.08870809336383, 22.31394708091023], [85.11386092131919, 22.314845396194347], [85.11206429075094, 22.304963928069032], [85.1147592366033, 22.29148919880724], [85.10397945319387, 22.29148919880724], [85.06984347239732, 22.27262457784073], [85.06984347239732, 22.260048163863058], [85.07433504881793, 22.25106501102186], [85.06804684182909, 22.244776804033023], [85.0689451571132, 22.229505444202992], [85.05906368898789, 22.206149246815883], [85.04738559029434, 22.188182941133494], [85.04828390557846, 22.17560652715582], [85.02492770819136, 22.154945275621074], [85.03121591518018, 22.13697896993868], [85.02402939290722, 22.112724457267454], [84.98001194398537, 22.092063205732707], [84.98001194398537, 22.08397836817563], [84.98630015097422, 22.077690161186794], [85.00067319552012, 22.07948679175503], [85.00696140250896, 22.08308005289151], [85.0087580330772, 22.091164890448585], [85.01504624006604, 22.094758151585065], [85.01953781648663, 22.103741304426258], [85.02941928461195, 22.10194467385802], [85.03480917631667, 22.109131196130978], [85.0410973833055, 22.110927826699214], [85.0689451571132, 22.108232880846856], [85.08241988637499, 22.1010463585739], [85.0958946156368, 22.10014804328978], [85.09948787677327, 22.094758151585065], [85.09948787677327, 22.08487668345975], [85.10847102961446, 22.08128342232327], [85.11206429075094, 22.072300269482078], [85.11835249773978, 22.066910377777358], [85.13991206455864, 22.074096900050314], [85.15518342438868, 22.071401954197956], [85.16326826194576, 22.053435648515567], [85.1704547842187, 22.04894407209497], [85.16416657722988, 22.06601206249324], [85.17404804535519, 22.068707008345598], [85.1794379370599, 22.06511374720912], [85.18303119819639, 22.055232279083803], [85.20998065671998, 22.04445249567437], [85.21447223314057, 22.038164288685536], [85.21447223314057, 22.011214830161947], [85.22794696240236, 22.001333362036632], [85.23154022353884, 22.001333362036632], [85.24142169166416, 22.013011460730187], [85.27555767246069, 22.08308005289151], [85.30160881570016, 22.109131196130978], [85.31598186024607, 22.116317718403934], [85.32227006723491, 22.125300871245127], [85.34652457990614, 22.127097501813367], [85.35371110217909, 22.12080929482453], [85.36179593973617, 22.12170761010865], [85.3582026785997, 22.13967391579104], [85.36269425502029, 22.145962122779878], [85.36269425502029, 22.154945275621074], [85.38335550655503, 22.152250329768712], [85.3950336052486, 22.15943685204167], [85.4183898026357, 22.154046960336952], [85.46330556684168, 22.133385708802205], [85.47139040439875, 22.12440255596101], [85.47947524195583, 22.12260592539277], [85.48666176422878, 22.116317718403934], [85.52169606030945, 22.105537934994498], [85.53606910485536, 22.095656466869183], [85.53876405070771, 22.08757162931211], [85.55493372582187, 22.091164890448585], [85.55942530224246, 22.08577499874387], [85.57200171622014, 22.086673314027987], [85.58996802190254, 22.074995215334436], [85.59715454417548, 22.074995215334436], [85.60613769701668, 22.082181737607392], [85.60973095815316, 22.077690161186794], [85.63039220968791, 22.08128342232327], [85.64027367781323, 22.091164890448585], [85.64476525423382, 22.091164890448585], [85.66632482105268, 22.062418801356763], [85.67261302804152, 22.060622170788523], [85.6717147127574, 22.051639017947327], [85.6806978655986, 22.04894407209497], [85.68788438787156, 22.057028909652043], [85.71483384639514, 22.057028909652043], [85.7453765660552, 22.069605323629716], [85.758851295317, 22.086673314027987], [85.77502097043114, 22.091164890448585], [85.80286874423885, 22.110927826699214], [85.81454684293242, 22.10284298914214], [85.81544515821653, 22.099249728005663], [85.80915695122769, 22.092961521016825], [85.81634347350065, 22.092961521016825], [85.82532662634185, 22.08757162931211], [85.83071651804656, 22.077690161186794], [85.81454684293242, 22.070503638913838], [85.78669906912471, 22.076791845902672], [85.77052939401055, 22.053435648515567], [85.77232602457879, 22.04445249567437], [85.77861423156763, 22.037265973401414], [85.7768176009994, 22.03097776641258], [85.758851295317, 22.016604721866667], [85.75615634946465, 22.01031651487783], [85.76064792588524, 21.98965526334308], [85.78400412327234, 21.978875479933645], [85.8001737983865, 21.982468741070125], [85.81364852764828, 21.981570425786003], [85.81634347350065, 21.97079064237657], [85.8459878778766, 21.977977164649527], [85.88461543509374, 21.97528221879717], [85.89449690321905, 21.978875479933645], [85.89988679492376, 21.969892327092452], [85.90527668662848, 21.96719738124009], [85.90437837134436, 21.97348558822893], [85.90976826304907, 21.977078849365405], [85.90707331719672, 21.983367056354243], [85.91336152418556, 21.996841785616034], [85.91246320890144, 22.00582493845723], [85.92683625344735, 22.019299667719025], [85.93941266742502, 22.017503037150785], [85.9430059285615, 22.020197983003143], [85.97444696350568, 22.070503638913838], [85.97804022464216, 22.08308005289151], [86.00049810674516, 22.109131196130978], [86.00229473731339, 22.114521087835694], [85.99510821504043, 22.12260592539277], [85.99420989975631, 22.132487393518083], [85.99959979146104, 22.13877560050692], [85.99959979146104, 22.146860438063996], [86.0121762054387, 22.15943685204167], [86.01397283600694, 22.172911581303463], [86.02654924998461, 22.185487995281136], [86.01756609714342, 22.19986103982705], [85.98702337748335, 22.221420606645918], [85.97893853992628, 22.23489533590771], [85.97085370236921, 22.239386912328307], [85.9699553870851, 22.244776804033023], [85.98253180106276, 22.2528616415901], [85.98522674691512, 22.268133001420132], [86.00049810674516, 22.278912784829565], [86.00049810674516, 22.28609930710252], [86.0076846290181, 22.293285829375478], [86.0256509347005, 22.298675721080194], [86.03193914168934, 22.304065612784914], [86.04002397924641, 22.304065612784914], [86.04271892509877, 22.30855718920551], [86.01576946657518, 22.30586224335315], [86.01127789015459, 22.31125213505787], [86.00858294430222, 22.31035381977375], [86.00588799844986, 22.316642026762587], [86.02026104299578, 22.330116756024378], [86.01397283600694, 22.335506647729098], [86.00678631373398, 22.336404963013216], [85.99780316089279, 22.331913386592618], [85.9933115844722, 22.337303278297334], [86.01576946657518, 22.360659475684443], [86.01576946657518, 22.373235889662116], [86.01846441242753, 22.372337574377998], [86.0211593582799, 22.375930835514474], [86.01846441242753, 22.393897141196867], [86.0121762054387, 22.399287032901583], [86.01307452072282, 22.410965131595134], [86.00858294430222, 22.425338176141047], [85.99061663861984, 22.42354154557281], [85.9663621259486, 22.4415078512552], [85.96276886481213, 22.445101112391676], [85.96187054952802, 22.453185949948754], [85.95378571197094, 22.455880895801112], [85.95378571197094, 22.45857584165347], [85.95917560367565, 22.468457309778785], [85.95827728839153, 22.47744046261998], [85.9663621259486, 22.48193203904058], [85.96546381066449, 22.492711822450012], [85.9699553870851, 22.50169497529121], [85.98073517049453, 22.5106781281324], [85.99600653032455, 22.509779812848283], [86.01487115129106, 22.525051172678314], [86.02295598884814, 22.522356226825956], [86.02834588055285, 22.53493264080363], [86.01846441242753, 22.544814108928943], [86.03732903339404, 22.563678729895454], [86.0579902849288, 22.55379726177014], [86.0714650141906, 22.541220847792466], [86.09392289629358, 22.507983182280043], [86.0993127879983, 22.492711822450012], [86.10739762555538, 22.484626984892937], [86.12356730066952, 22.485525300177056], [86.14602518277252, 22.48013540847234], [86.14512686748839, 22.47564383205174], [86.15860159675019, 22.479237093188218], [86.17566958714846, 22.47654214733586], [86.19453420811497, 22.468457309778785], [86.20261904567204, 22.470253940347025], [86.20890725266088, 22.46306741807407], [86.21699209021796, 22.465762363926427], [86.21160219851323, 22.45947415693759], [86.21968703607031, 22.449592688812274], [86.22867018891151, 22.450491004096396], [86.2646028002763, 22.43971122068696], [86.27987416010632, 22.445999427675797], [86.28706068237928, 22.42623649142517], [86.30053541164106, 22.416355023299854], [86.30233204220931, 22.4046769246063], [86.31760340203934, 22.391202195344505], [86.31940003260758, 22.380422411935072], [86.3247899243123, 22.373235889662116], [86.3391629688582, 22.366947682673278], [86.34904443698352, 22.357964529832085], [86.35263769812, 22.345388115854412], [86.36251916624532, 22.339998224149692], [86.37509558022299, 22.338201593581456], [86.40114672346246, 22.319336972614945], [86.42180797499721, 22.314845396194347], [86.42450292084956, 22.306760558637272], [86.43168944312252, 22.302268982216674], [86.4397742806796, 22.306760558637272], [86.43887596539548, 22.32472686431966], [86.45863890164611, 22.32293023375142], [86.46941868505554, 22.333710017160858], [86.47840183789674, 22.334608332444976], [86.48289341431733, 22.34448980057029], [86.4999614047156, 22.341794854717932], [86.50085971999972, 22.331913386592618], [86.50714792698857, 22.32472686431966], [86.52331760210271, 22.319336972614945], [86.52511423267094, 22.313048765626107], [86.52062265625035, 22.31125213505787], [86.52421591738683, 22.303167297500792], [86.52960580909155, 22.299574036364316], [86.53319907022802, 22.298675721080194], [86.54038559250098, 22.304065612784914], [86.55116537591041, 22.295980775227836], [86.56733505102457, 22.297777405796076], [86.57182662744516, 22.293285829375478], [86.57901314971812, 22.297777405796076], [86.58979293312755, 22.283404361250163], [86.59069124841167, 22.27531952369309], [86.6104541846623, 22.278912784829565], [86.62662385977646, 22.267234686136014], [86.63470869733354, 22.269929631988372], [86.63740364318589, 22.263641424999534], [86.64548848074297, 22.261844794431294], [86.64998005716356, 22.23399702062359], [86.660759840573, 22.23489533590771], [86.6652514169936, 22.239386912328307], [86.66974299341419, 22.237590281760067], [86.67064130869831, 22.228607128918874], [86.68231940739187, 22.219623976077678], [86.72094696460901, 22.217827345509438], [86.72633685631372, 22.21333576908884], [86.74609979256435, 22.208844192668245], [86.7577778912579, 22.208844192668245], [86.77484588165618, 22.21513239965708], [86.77484588165618, 22.224115552498276], [86.77215093580382, 22.226810498350634], [86.77484588165618, 22.23220039005535], [86.78652398034973, 22.23040375948711], [86.79191387205445, 22.225013867782394], [86.7892189262021, 22.221420606645918], [86.78203240392914, 22.225912183066516], [86.77754082750853, 22.220522291361796], [86.77754082750853, 22.21243745380472], [86.78382903449737, 22.21243745380472], [86.79011724148621, 22.217827345509438], [86.80089702489565, 22.21513239965708], [86.80988017773684, 22.23848859704419], [86.80089702489565, 22.239386912328307], [86.79820207904328, 22.23489533590771], [86.79281218733857, 22.23848859704419], [86.79011724148621, 22.263641424999534], [86.79999870961153, 22.262743109715416], [86.79640544847504, 22.25196332630598], [86.79910039432741, 22.241183542896547], [86.80898186245273, 22.246573434601263], [86.81167680830508, 22.261844794431294], [86.81616838472567, 22.25016669573774], [86.82065996114628, 22.261844794431294], [86.83682963626042, 22.260946479147176], [86.84132121268102, 22.2573532180107], [86.85120268080634, 22.260946479147176], [86.8583892030793, 22.254658272158338], [86.88533866160287, 22.2528616415901], [86.88533866160287, 22.269929631988372], [86.88803360745524, 22.269929631988372], [86.88893192273936, 22.276217838977207], [86.88533866160287, 22.297777405796076], [86.87366056290932, 22.298675721080194], [86.86916898648873, 22.304963928069032], [86.86108414893165, 22.304963928069032], [86.84760941966987, 22.31394708091023], [86.84132121268102, 22.31394708091023], [86.82874479870335, 22.32472686431966], [86.82874479870335, 22.34269317000205], [86.8404228973969, 22.3678459979574], [86.83862626682867, 22.38132072721919], [86.84401615853338, 22.388507249492147], [86.84401615853338, 22.396592087049225], [86.83413469040806, 22.405575239890418], [86.80898186245273, 22.416355023299854], [86.76316778296263, 22.42354154557281], [86.7577778912579, 22.43521964426636], [86.75687957597378, 22.447796058244037], [86.75059136898496, 22.452287634664636], [86.74520147728023, 22.469355625062903], [86.74789642313259, 22.479237093188218], [86.78562566506561, 22.47744046261998], [86.7892189262021, 22.474745516767623], [86.79820207904328, 22.483728669608816], [86.79730376375916, 22.489118561313536], [86.79101555677033, 22.49361013773413], [86.79820207904328, 22.49989834472297], [86.7892189262021, 22.507983182280043], [86.79191387205445, 22.51337307398476], [86.79011724148621, 22.52055959625772], [86.78293071921325, 22.524152857394196], [86.78562566506561, 22.531339379667152], [86.78293071921325, 22.53583095608775], [86.78562566506561, 22.537627586655987], [86.78472734978149, 22.543915793644825], [86.76406609824674, 22.55110231591778], [86.76765935938322, 22.561882099327214], [86.76316778296263, 22.564577045179576], [86.76047283711027, 22.57266188273665], [86.7254385410296, 22.57535682858901], [86.70837055063133, 22.580746720293725], [86.68501435324423, 22.578051774441366], [86.67243793926656, 22.57266188273665], [86.66165815585711, 22.57535682858901], [86.65536994886828, 22.57356019802077], [86.64908174187944, 22.581645035577843], [86.65087837244768, 22.58613661199844], [86.64818342659532, 22.59242481898728], [86.63381038204942, 22.597814710691996], [86.63201375148117, 22.61128943995379], [86.63650532790177, 22.62835743035206], [86.63650532790177, 22.656205204159765], [86.63021712091293, 22.66339172643272], [86.62303059863999, 22.66608667228508], [86.61674239165114, 22.675069825126275], [86.60236934710522, 22.680459716830992], [86.59158956369579, 22.689442869672188], [86.57991146500224, 22.689442869672188], [86.54936874534218, 22.711002436491057], [86.54038559250098, 22.72088390461637], [86.53409738551214, 22.717290643479892], [86.50984287284092, 22.716392328195774], [86.5089445575568, 22.70291759893398], [86.50624961170445, 22.70201928364986], [86.4999614047156, 22.712799067059294], [86.48828330602205, 22.72357885046873], [86.4810967837491, 22.72537548103697], [86.47840183789674, 22.722680535184608], [86.46672373920318, 22.740646840867], [86.46582542391906, 22.747833363139957], [86.4541473252255, 22.76040977711763], [86.44336754181607, 22.75951146183351], [86.41551976800837, 22.7774777675159], [86.41282482215601, 22.787359235641215], [86.41821471386072, 22.790054181493574], [86.42090965971309, 22.808918802460084], [86.43348607369076, 22.827783423426595], [86.4307911278384, 22.846648044393103], [86.43258775840664, 22.861021088939015], [86.44696080295255, 22.859224458370775], [86.44696080295255, 22.883478971042003], [86.45145237937315, 22.883478971042003], [86.4631304780667, 22.896953700303797], [86.46223216278258, 22.899648646156155], [86.44336754181607, 22.905936853144993], [86.43168944312252, 22.916716636554426], [86.43168944312252, 22.923004843543264], [86.43797765011136, 22.92839473524798], [86.457740586362, 22.93288631166858], [86.45863890164611, 22.940971149225653], [86.4631304780667, 22.94546272564625], [86.46941868505554, 22.94636104093037], [86.47031700033966, 22.94995430206685], [86.47391026147614, 22.949055986782728], [86.47480857676025, 22.942767779793893], [86.48379172960145, 22.939174518657413], [86.48469004488557, 22.934682942236815], [86.48918162130617, 22.944564410362133], [86.49636814357913, 22.94186946450977], [86.49636814357913, 22.94815767149861], [86.51882602568212, 22.944564410362133], [86.52511423267094, 22.951750932635086], [86.5269108632392, 22.9616324007604], [86.53858896193275, 22.962530716044522], [86.53769064664863, 22.96702229246512], [86.54218222306922, 22.974208814738077], [86.54038559250098, 22.987683543999868], [86.51433444926151, 22.96702229246512], [86.50085971999972, 22.96881892303336], [86.50714792698857, 22.974208814738077], [86.49726645886325, 22.98319196757927], [86.49726645886325, 22.990378489852226], [86.47840183789674, 22.989480174568108], [86.47480857676025, 22.985886913431628], [86.46852036977143, 22.98858185928399], [86.4631304780667, 22.985886913431628], [86.44426585710019, 22.985886913431628], [86.44067259596372, 22.990378489852226], [86.41551976800837, 22.994870066272824], [86.41012987630366, 22.98678522871575], [86.40024840817834, 22.98409028286339], [86.39126525533715, 22.975107130022195], [86.38228210249595, 22.981395337011033], [86.38048547192771, 22.991276805136348], [86.3706040038024, 22.994870066272824], [86.36251916624532, 22.993073435704584], [86.36072253567708, 22.996666696841064], [86.35533264397236, 22.996666696841064], [86.35084106755177, 22.994870066272824], [86.35084106755177, 22.990378489852226], [86.34095959942645, 22.993971750988706], [86.33107813130114, 22.989480174568108], [86.32389160902818, 22.993971750988706], [86.31131519505051, 22.995768381556942], [86.30862024919814, 23.00205658854578], [86.3014337269252, 23.00385321911402], [86.29873878107283, 23.013734687239335], [86.29424720465224, 23.00834479553462], [86.29155225879987, 23.011039741386977], [86.27807752953808, 23.011039741386977], [86.26280616970806, 23.00025995797754], [86.2610095391398, 22.995768381556942], [86.21160219851323, 22.992175120420466], [86.20351736095616, 22.997565012125182], [86.19992409981968, 23.009243110818737], [86.20351736095616, 23.014633002523453], [86.1774662177167, 23.011938056671095], [86.16039822731842, 23.039785830478802], [86.15321170504546, 23.037989199910562], [86.14961844390899, 23.04158246104704], [86.14872012862487, 23.053260559740593], [86.13434708407895, 23.063142027865908], [86.13344876879484, 23.071226865422986], [86.13794034521544, 23.07931170298006], [86.1361437146472, 23.08380327940066], [86.11817740896481, 23.093684747525973], [86.10470267970301, 23.089193171105375], [86.09122795044122, 23.090989801673615], [86.08134648231591, 23.104464530935406], [86.06877006833824, 23.101769585083048], [86.04721050151936, 23.108956107356004], [86.044515555667, 23.115244314344842], [86.04900713208761, 23.127820728322515], [86.03553240282581, 23.144888718720786], [86.02744756526873, 23.145787034004904], [86.01487115129106, 23.141295457584306], [86.00948125958635, 23.145787034004904], [85.98163348577864, 23.146685349289022], [85.97085370236921, 23.140397142300188], [85.95288739668682, 23.13949882701607], [85.94390424384562, 23.12961735889075], [85.92503962287911, 23.13141398945899], [85.91964973117439, 23.126922413038393], [85.91785310060615, 23.13141398945899], [85.91425983946968, 23.130515674174873], [85.90078511020788, 23.148481979857262], [85.87742891282078, 23.158363447982577], [85.87742891282078, 23.17363480781261], [85.85766597657015, 23.195194374631477], [85.83161483333068, 23.19339774406324], [85.83341146389893, 23.20507584275679], [85.83071651804656, 23.20956741917739], [85.83161483333068, 23.23112698599626], [85.82712325691008, 23.26705959736104], [85.83341146389893, 23.281432641906953], [85.83969967088775, 23.28233095719107], [85.84419124730836, 23.290415794748146], [85.86125923770662, 23.302992208725822], [85.8603609224225, 23.315568622703495], [85.8693440752637, 23.316466937987613], [85.8783272281049, 23.32365346026057], [85.87114070583193, 23.330839982533526], [85.87293733640018, 23.35778944105711], [85.86664912941134, 23.36138270219359], [85.86664912941134, 23.365874278614186], [85.88371711980962, 23.373959116171264], [85.89539521850317, 23.370365855034784], [85.89449690321905, 23.3802473231601], [85.88192048924137, 23.38204395372834], [85.88461543509374, 23.388332160717177], [85.87742891282078, 23.400010259410728], [85.88192048924137, 23.403603520547207], [85.87922554338901, 23.408095096967806], [85.86215755299074, 23.411688358104282], [85.85946260713838, 23.452112545889662], [85.86575081412722, 23.470977166856173], [85.87203902111605, 23.47636705856089], [85.89270027265081, 23.47636705856089], [85.90527668662848, 23.47277379742441], [85.91785310060615, 23.461994014014977], [85.94659918969798, 23.45480749174202], [85.97624359407392, 23.47187548214029], [85.98882000805159, 23.47636705856089], [85.99510821504043, 23.475468743276767], [86.01936272771167, 23.48804515725444], [86.02924419583698, 23.487146841970322], [86.04721050151936, 23.49343504895916], [86.05170207793996, 23.498824940663877], [86.05080376265585, 23.502418201800353], [86.03283745697345, 23.505113147652715], [86.03193914168934, 23.521282822766864], [86.02654924998461, 23.524876083903344], [86.01846441242753, 23.541944074301615], [86.0211593582799, 23.54643565072221], [86.01037957487047, 23.55182554242693], [86.01127789015459, 23.561707010552244], [86.01756609714342, 23.563503641120484], [86.0256509347005, 23.573385109245798], [86.03553240282581, 23.575181739814035], [86.03732903339404, 23.58416489265523], [86.04721050151936, 23.58416489265523], [86.05080376265585, 23.578775000950515], [86.0714650141906, 23.578775000950515], [86.07236332947471, 23.5688935328252], [86.08943131987299, 23.56799521754108], [86.10110941856654, 23.574283424529916], [86.10919425612362, 23.570690163393436], [86.11997403953305, 23.574283424529916], [86.12626224652189, 23.56709690225696], [86.1316521382266, 23.566198586972842], [86.13883866049956, 23.570690163393436], [86.14782181334076, 23.566198586972842], [86.14602518277252, 23.558113749415764], [86.15321170504546, 23.55002891185869], [86.14422855220427, 23.536554182596895], [86.14243192163603, 23.527571029755702], [86.15411002032958, 23.519486192198624], [86.1550083356137, 23.504214832368593], [86.14512686748839, 23.4952316795274], [86.14602518277252, 23.486248526686204], [86.14243192163603, 23.479960319697366], [86.14512686748839, 23.47367211270853], [86.15231338976135, 23.477265373845007], [86.1684830648755, 23.47636705856089], [86.1729746412961, 23.479062004413247], [86.17926284828494, 23.475468743276767], [86.17926284828494, 23.467383905719693], [86.18734768584201, 23.46828222100381], [86.19094094697849, 23.464688959867335], [86.19992409981968, 23.463790644583217], [86.20261904567204, 23.45929906816262], [86.21789040550208, 23.45660412231026], [86.22417861249092, 23.45750243759438], [86.22507692777504, 23.47007885157205], [86.23855165703682, 23.47007885157205], [86.23495839590035, 23.45570580702614], [86.22687355834327, 23.450315915321422], [86.22417861249092, 23.43594287077551], [86.23046681947974, 23.429654663786675], [86.23944997232094, 23.43145129435491], [86.24124660288918, 23.42067151094548], [86.24753480987802, 23.419773195661357], [86.25292470158274, 23.424264772081955], [86.2466364945939, 23.43504455549139], [86.27717921425396, 23.441332762480226], [86.28077247539044, 23.440434447196107], [86.28256910595869, 23.426959717934313], [86.3014337269252, 23.42067151094548], [86.31311182561875, 23.426061402650195], [86.31401014090287, 23.429654663786675], [86.31221351033463, 23.43773950134375], [86.30323035749343, 23.43773950134375], [86.30053541164106, 23.444926023616706], [86.31221351033463, 23.448519284753182], [86.31490845618698, 23.45301086117378], [86.3247899243123, 23.45750243759438], [86.32838318544877, 23.45570580702614], [86.33017981601701, 23.447620969469064], [86.33736633828997, 23.450315915321422], [86.34006128414232, 23.452112545889662], [86.33826465357409, 23.461095698730855], [86.35173938283589, 23.463790644583217], [86.34904443698352, 23.47367211270853], [86.35533264397236, 23.481756950265606], [86.36790905795003, 23.484451896117964], [86.3706040038024, 23.481756950265606], [86.37240063437063, 23.484451896117964], [86.3706040038024, 23.490740103106802], [86.3616208509612, 23.49253673367504], [86.35802758982472, 23.48984178782268], [86.35353601340412, 23.49792662537976], [86.3571292745406, 23.51319798520979], [86.36431579681356, 23.51499461577803], [86.36790905795003, 23.522181138050982], [86.35892590510883, 23.5320626061763], [86.36072253567708, 23.539249128449256], [86.35802758982472, 23.54374070486985], [86.36431579681356, 23.55182554242693], [86.36431579681356, 23.557215434131646], [86.37329894965475, 23.561707010552244], [86.37509558022299, 23.5688935328252], [86.38228210249595, 23.57158847867756], [86.38048547192771, 23.58506320793935], [86.38587536363242, 23.58506320793935], [86.39036694005303, 23.589554784359947], [86.40653661516717, 23.58865646907583], [86.41012987630366, 23.598537937201144], [86.4173163985766, 23.60392782890586], [86.42450292084956, 23.60482614418998], [86.42719786670192, 23.611114351178816], [86.4397742806796, 23.609317720610576], [86.4397742806796, 23.629978972145327], [86.46762205448731, 23.629978972145327], [86.48379172960145, 23.635368863850044], [86.51074118812504, 23.629080656861206], [86.52870749380743, 23.629080656861206], [86.56553842045633, 23.646148647259476], [86.59069124841167, 23.66231832237363], [86.58799630255932, 23.66591158351011], [86.59069124841167, 23.671301475214825], [86.62572554449234, 23.673098105783062], [86.6472851113112, 23.682979573908376], [86.67513288511891, 23.687471150328975], [86.70118402835838, 23.69645430317017], [86.71465875762017, 23.69735261845429], [86.73262506330256, 23.693759357317813], [86.73801495500727, 23.67758968220366], [86.75957452182615, 23.67848799748778], [86.79191387205445, 23.687471150328975], [86.79550713319092, 23.693759357317813], [86.79101555677033, 23.70094587959077], [86.79910039432741, 23.71801386998904], [86.803591970748, 23.738675121523787], [86.80718523188447, 23.744065013228507], [86.81616838472567, 23.744963328512625], [86.81976164586216, 23.75394648135382], [86.81616838472567, 23.77820099402505], [86.79730376375916, 23.797963930275678], [86.80089702489565, 23.81503192067395], [86.79730376375916, 23.824913388799263], [86.79191387205445, 23.82760833465162], [86.79281218733857, 23.83209991107222], [86.80269365546388, 23.83209991107222], [86.8080835471686, 23.824913388799263], [86.8080835471686, 23.81503192067395], [86.8215582764304, 23.81143865953747], [86.83413469040806, 23.819523497094547], [86.8449144738175, 23.822218442946905], [86.85479594194281, 23.832998226356338], [86.85659257251105, 23.840184748629294], [86.87096561705697, 23.844676325049893], [86.87635550876169, 23.814133605389827], [86.88084708518228, 23.814133605389827], [86.88713529217112, 23.821320127662784], [86.88713529217112, 23.82760833465162], [86.87994876989816, 23.841981379197534], [86.8817454004664, 23.857252739027565], [86.87545719347756, 23.858151054311683], [86.87545719347756, 23.863540946016403], [86.89432181444407, 23.879710621130553], [86.90779654370587, 23.879710621130553], [86.92396621882001, 23.86623589186876], [86.92486453410413, 23.85365947789109], [86.9365426327977, 23.844676325049893], [86.94372915507064, 23.842879694481653], [86.9509156773436, 23.84557464033401], [86.95630556904833, 23.850964532038727], [86.95900051490068, 23.86264263073228], [86.96798366774188, 23.86533757658464], [86.97966176643543, 23.856354423743447], [87.00301796382254, 23.852761162606967], [87.02278090007317, 23.840184748629294], [87.03445899876672, 23.837489802776936], [87.05691688086971, 23.815930235958067], [87.07128992541561, 23.81323529010571], [87.0838663393933, 23.805150452548634], [87.09015454638212, 23.80964202896923], [87.09644275337097, 23.80964202896923], [87.10542590621216, 23.799760560843914], [87.11351074376924, 23.806048767832753], [87.1162056896216, 23.801557191412154], [87.10991748263275, 23.798862245559796], [87.12159558132632, 23.79526898442332], [87.13327368001987, 23.796167299707438], [87.13866357172458, 23.800658876128036], [87.14315514814518, 23.796167299707438], [87.15034167041814, 23.79526898442332], [87.16651134553229, 23.819523497094547], [87.1620197691117, 23.82850664993574], [87.1530366162705, 23.826710019367503], [87.14135851757695, 23.842879694481653], [87.1296804188834, 23.85186284732285], [87.12788378831515, 23.863540946016403], [87.13237536473575, 23.868032522436998], [87.13866357172458, 23.868032522436998], [87.14674840928166, 23.86264263073228], [87.15752819269109, 23.86533757658464], [87.17818944422584, 23.85186284732285], [87.18447765121468, 23.852761162606967], [87.18717259706703, 23.857252739027565], [87.19435911933999, 23.855456108459325], [87.19525743462411, 23.850964532038727], [87.18807091235115, 23.846472955618133], [87.18807091235115, 23.841083063913413], [87.19435911933999, 23.841981379197534], [87.1988506957606, 23.84737127090225], [87.20334227218119, 23.846472955618133], [87.20693553331766, 23.852761162606967], [87.21681700144298, 23.850964532038727], [87.2222068931477, 23.858151054311683], [87.23568162240949, 23.85365947789109], [87.23208836127301, 23.844676325049893], [87.22400352371594, 23.842879694481653], [87.21861363201123, 23.82940496521986], [87.22849510013654, 23.823116758231023], [87.24196982939833, 23.82581170408338], [87.25544455866012, 23.839286433345176], [87.24646140581892, 23.85365947789109], [87.24915635167129, 23.86623589186876], [87.24466477525068, 23.86893083772112], [87.2455630905348, 23.881507251698793], [87.24286814468245, 23.88599882811939], [87.24735972110305, 23.906660079654138], [87.25274961280776, 23.910253340790618], [87.2590378197966, 23.9048634490859], [87.25634287394425, 23.897676926812945], [87.26173276564896, 23.89049040453999], [87.26173276564896, 23.877913990562313], [87.2680209726378, 23.873422414141718], [87.27880075604723, 23.883303882267032], [87.28598727832019, 23.88420219755115], [87.29227548530902, 23.889592089255867], [87.29047885474078, 23.898575242097063], [87.29407211587726, 23.898575242097063], [87.29407211587726, 23.90127018794942], [87.28508896303606, 23.932711222893605], [87.2913771700249, 23.93810111459832], [87.2913771700249, 23.956067420280714], [87.277004125479, 23.95786405084895], [87.27071591849015, 23.965050573121907], [87.2635293962172, 23.96415225783779], [87.26083445036484, 23.966847203690147], [87.25993613508072, 23.97672867181546], [87.2680209726378, 23.985711824656658], [87.26173276564896, 23.99469497749785], [87.26083445036484, 24.00277981505493], [87.2500546669554, 23.995593292781972], [87.24017319883009, 24.005474760907287], [87.23927488354597, 24.0153562290326], [87.23298667655713, 24.022542751305558], [87.23298667655713, 24.03332253471499], [87.23747825297774, 24.04140737227207], [87.24466477525068, 24.042305687556187], [87.25544455866012, 24.03601748056735], [87.27430917962663, 24.032424219430872], [87.28149570189959, 24.027034327726156], [87.30844516042318, 24.032424219430872], [87.3326996730944, 24.030627588862632], [87.33539461894676, 24.025237697157916], [87.3326996730944, 24.01805117488496], [87.3237165202532, 24.01805117488496], [87.32102157440085, 24.009966337327885], [87.31563168269614, 24.007271391475527], [87.31832662854849, 24.00008486920257], [87.32461483553732, 23.99649160806609], [87.34797103292443, 23.995593292781972], [87.35785250104975, 24.009068022043763], [87.39109016656217, 24.001881499770807], [87.39378511241453, 23.99649160806609], [87.40007331940336, 23.993796662213732], [87.41803962508575, 23.989305085793134], [87.42522614735871, 23.991101716361374], [87.42702277792695, 23.983915194088418], [87.43690424605226, 23.9785253023837], [87.44858234474582, 23.984813509372536], [87.45846381287113, 23.982118563520178], [87.45846381287113, 23.993796662213732], [87.44139582247286, 24.00277981505493], [87.44678571417758, 24.009068022043763], [87.43420930019991, 24.007271391475527], [87.43420930019991, 24.009068022043763], [87.4476840294617, 24.01625454431672], [87.47014191156468, 24.010864652612003], [87.48271832554236, 24.01355959846436], [87.49259979366768, 24.024339381873798], [87.50158294650888, 24.022542751305558], [87.50158294650888, 24.028830958294392], [87.51056609935007, 24.038712426419707], [87.5078711534977, 24.045898948692663], [87.49080316309944, 24.0521871556815], [87.49439642423592, 24.062966939090934], [87.48900653253119, 24.07284840721625], [87.50068463122476, 24.07284840721625], [87.50607452292947, 24.081831560057445], [87.48900653253119, 24.08722145176216], [87.4934981089518, 24.09261134346688], [87.49259979366768, 24.096204604603358], [87.49709137008827, 24.098899550455716], [87.4934981089518, 24.107882703296912], [87.49439642423592, 24.115967540853987], [87.50876946878182, 24.11057764914927], [87.5168543063389, 24.11147596443339], [87.52044756747539, 24.104289442160432], [87.5303290356007, 24.101594496308074], [87.5303290356007, 24.09530628931924], [87.54021050372602, 24.08722145176216], [87.55458354827192, 24.082729875341567], [87.56985490810196, 24.088119767046283], [87.57614311509079, 24.085424821193925], [87.57075322338608, 24.094407974035118], [87.56895659281784, 24.10698438801279], [87.57793974565902, 24.11057764914927], [87.58153300679551, 24.124052378411065], [87.59860099719378, 24.124950693695183], [87.60758415003497, 24.12854395483166], [87.5860245832161, 24.148306891082292], [87.56985490810196, 24.155493413355245], [87.57883806094316, 24.161781620344083], [87.59770268190965, 24.159984989775843], [87.6039908888985, 24.16447656619644], [87.61387235702381, 24.16537488148056], [87.62734708628561, 24.163578250912323], [87.64531339196799, 24.15369678278701], [87.65699149066155, 24.156391728639367], [87.67855105748042, 24.148306891082292], [87.69022915617397, 24.15010352165053], [87.69292410202632, 24.16447656619644], [87.69651736316281, 24.1671715120488], [87.69292410202632, 24.18603613301531], [87.68843252560573, 24.185137817731192], [87.6776527421963, 24.191426024720027], [87.67136453520746, 24.20579906926594], [87.6498049683886, 24.206697384550058], [87.63812686969504, 24.211188960970656], [87.64261844611563, 24.230951897221285], [87.63543192384267, 24.24262999591484], [87.64172013083152, 24.249816518187796], [87.64711002253624, 24.248918202903678], [87.65249991424095, 24.23813841949424], [87.65699149066155, 24.235443473641883], [87.66148306708214, 24.245324941767198], [87.6686695893551, 24.24262999591484], [87.6731611657757, 24.247121572335438], [87.68124600333277, 24.24622325705132], [87.68843252560573, 24.256104725176634], [87.70280557015164, 24.25969798631311], [87.7099920924246, 24.292037336541412], [87.72885671339111, 24.286647444836696], [87.73514492037995, 24.288444075404936], [87.7513145954941, 24.30461375051909], [87.75670448719882, 24.303715435234967], [87.76029774833529, 24.311800272792045], [87.75939943305117, 24.318986795065], [87.7647893247559, 24.322580056201478], [87.76029774833529, 24.327969947906194], [87.76209437890353, 24.33605478546327], [87.78275563043829, 24.360309298134496], [87.78904383742712, 24.37647897324865], [87.7971286749842, 24.381868864953365], [87.79802699026831, 24.39175033307868], [87.7926370985636, 24.3926486483628], [87.79353541384772, 24.398936855351636], [87.80970508896186, 24.406123377624592], [87.80521351254127, 24.417801476318147], [87.79533204441596, 24.41061495404519], [87.78724720685888, 24.411513269329312], [87.78455226100652, 24.416004845749907], [87.79173878327947, 24.423191368022863], [87.79173878327947, 24.42858125972758], [87.788145522143, 24.43127620557994], [87.79084046799535, 24.438462727852897], [87.79623035970008, 24.439361043137016], [87.80431519725715, 24.45193745711469], [87.81509498066659, 24.45103914183057], [87.81778992651894, 24.46900544751296], [87.80880677367774, 24.477090285070034], [87.81240003481423, 24.485175122627112], [87.8204848723713, 24.48607343791123], [87.82317981822366, 24.495056590752426], [87.8204848723713, 24.496853221320666], [87.81868824180306, 24.49236164490007], [87.80970508896186, 24.49236164490007], [87.8115017195301, 24.500446482457143], [87.80521351254127, 24.510327950582457], [87.80072193612067, 24.494158275468305], [87.79443372913184, 24.491463329615947], [87.7926370985636, 24.498649851888903], [87.79982362083655, 24.50403974359362], [87.79802699026831, 24.50942963529834], [87.80072193612067, 24.513022896434816], [87.7971286749842, 24.539074039674283], [87.80341688197304, 24.5399723549584], [87.80611182782539, 24.547158877231357], [87.79353541384772, 24.56512518291375], [87.7791623693018, 24.571413389902585], [87.76748427060825, 24.571413389902585], [87.76838258589237, 24.58039654274378], [87.788145522143, 24.58219317331202], [87.80880677367774, 24.5768032816073], [87.82317981822366, 24.566921813481986], [87.8249764487919, 24.558836975924912], [87.848332646179, 24.551650453651956], [87.85012927674724, 24.557938660640794], [87.8573157990202, 24.554345399504314], [87.86360400600904, 24.556142030072554], [87.8662989518614, 24.56153192177727], [87.88696020339614, 24.56243023706139], [87.89055346453263, 24.57859991217554], [87.8986383020897, 24.583989803880257], [87.90492650907854, 24.58309148859614], [87.90941808549914, 24.592074641437335], [87.90762145493089, 24.608244316551485], [87.88875683396438, 24.608244316551485], [87.88426525754379, 24.605549370699126], [87.87258715885024, 24.610040947119725], [87.87528210470259, 24.616329154108563], [87.88426525754379, 24.611837577687965], [87.90043493265794, 24.611837577687965], [87.90223156322618, 24.626210622233877], [87.89145177981675, 24.623515676381516], [87.8851635728279, 24.628007252802114], [87.89145177981675, 24.632498829222712], [87.90402819379442, 24.629803883370354], [87.90762145493089, 24.63519377507507], [87.90762145493089, 24.648668504336865], [87.91301134663561, 24.657651657178057], [87.9121130313515, 24.662143233598655], [87.90043493265794, 24.669329755871612], [87.8941467256691, 24.668431440587494], [87.88606188811202, 24.67471964757633], [87.89684167152146, 24.69088932269048], [87.89773998680558, 24.708855628372874], [87.9031298785103, 24.70975394365699], [87.90133324794206, 24.721432042350546], [87.88696020339614, 24.725025303487023], [87.88336694225967, 24.73580508689646], [87.87797705055495, 24.739398348032935], [87.86899389771375, 24.72951687990762], [87.8393494933378, 24.738500032748817], [87.82587476407602, 24.751974762010608], [87.81419666538247, 24.75287307729473], [87.81778992651894, 24.76634780655652], [87.82677307936014, 24.769941067693], [87.82946802521249, 24.78341579695479], [87.83306128634898, 24.78790737337539], [87.83755286276957, 24.78790737337539], [87.83845117805369, 24.778924220534194], [87.8339596016331, 24.775330959397717], [87.8339596016331, 24.76455117598828], [87.8393494933378, 24.765449491272403], [87.84563770032665, 24.760957914851804], [87.85551916845196, 24.76455117598828], [87.86001074487255, 24.77263601354536], [87.8662989518614, 24.775330959397717], [87.86450232129316, 24.778924220534194], [87.86989221299787, 24.791500634511866], [87.87438378941847, 24.78970400394363], [87.87707873527083, 24.794195580364228], [87.87707873527083, 24.802280417921303], [87.87258715885024, 24.80497536377366], [87.87258715885024, 24.8112635707625], [87.8662989518614, 24.82204335417193], [87.86989221299787, 24.82383998474017], [87.88696020339614, 24.819348408319573], [87.8896551492485, 24.82294166945605], [87.89773998680558, 24.82383998474017], [87.8941467256691, 24.82833156116077], [87.89773998680558, 24.8436029209908], [87.88875683396438, 24.853484389116115], [87.91301134663561, 24.856179334968473], [87.93726585930683, 24.870552379514386], [87.96691026368278, 24.88133216292382], [87.97319847067162, 24.90019678389033], [87.96960520953515, 24.925349611845675], [87.96421531783042, 24.933434449402753], [87.91390966191973, 24.97745189832461], [87.90582482436265, 24.986435051165802], [87.9031298785103, 24.99901146514348], [87.88067199640732, 25.020571031962344], [87.87528210470259, 25.030452500087662], [87.85551916845196, 25.04662217520181], [87.79802699026831, 25.071775003157157], [87.77646742344945, 25.090639624123668], [87.77197584702884, 25.099622776964864], [87.76928090117649, 25.130165496624926], [87.77197584702884, 25.15891158571675], [87.7791623693018, 25.175979576115022], [87.78724720685888, 25.21730207918452], [87.7836539457224, 25.246048168276346], [87.70819546185636, 25.25592963640166], [87.70639883128813, 25.27479425736817], [87.68933084088985, 25.283777410209364], [87.69382241731044, 25.303540346459997], [87.68034768804866, 25.304438661744115], [87.68394094918513, 25.30982855344883], [87.65699149066155, 25.30982855344883], [87.65070328367271, 25.307133607596473], [87.63094034742208, 25.31252349930119], [87.62644877100148, 25.318811706290028], [87.622855509865, 25.310726868732953], [87.61477067230793, 25.315218445153548], [87.60578751946673, 25.31162518401707], [87.58063469151139, 25.327794859131224], [87.58063469151139, 25.33318475083594], [87.58782121378434, 25.341269588393015], [87.57973637622727, 25.34845611066597]], [[86.77484588165618, 24.61543083882444], [86.7757441969403, 24.616329154108563], [86.7757441969403, 24.61543083882444], [86.77484588165618, 24.61543083882444]], [[86.90959317427411, 24.539074039674283], [86.91049148955823, 24.5399723549584], [86.91049148955823, 24.539074039674283], [86.90959317427411, 24.539074039674283]], [[84.31975021015752, 22.83586826098367], [84.32064852544164, 22.836766576267788], [84.32064852544164, 22.83586826098367], [84.31975021015752, 22.83586826098367]], [[86.21699209021796, 22.466660679210545], [86.21789040550208, 22.468457309778785], [86.21789040550208, 22.466660679210545], [86.21699209021796, 22.466660679210545]]]}}]}